NORAD_CAT_ID,OBJECT_NAME,OBJECT_TYPE,EPOCH,MEAN_MOTION,ECCENTRICITY,INCLINATION,RA_OF_ASC_NODE,ARG_OF_PERICENTER,MEAN_ANOMALY,BSTAR,MEAN_MOTION_DOT,MEAN_MOTION_DDOT,TLE_LINE0,TLE_LINE1,TLE_LINE2,SEMIMAJOR_AXIS,PERIOD,APOGEE,PERIGEE,DECAYED
53821.0,STARLINK-4752,PAYLOAD,2022-10-05 14:00:01,15.73049288,0.0001175,53.2151,176.9452,105.9232,339.2892,0.0010857,0.00153572,0.0,0 STARLINK-4752,1 53821U 22114D   22278.58335648  .00153572  00000-0  10857-2 0  9998,2 53821  53.2151 176.9452 0001175 105.9232 339.2892 15.73049288  1305,6728.325,91.542,350.98,349.399,0.0
53821.0,STARLINK-4752,PAYLOAD,2022-10-05 22:00:00,15.73198447,0.0001105999999999,53.2153,175.2975,102.2024,71.7497,-0.00017521,-0.00025133,0.0,0 STARLINK-4752,1 53821U 22114D   22278.91667824 -.00025133  00000-0 -17521-3 0  9998,2 53821  53.2153 175.2975 0001106 102.2024  71.7497 15.73198447  3237,6727.9,91.533,350.509,349.02,0.0
53821.0,STARLINK-4752,PAYLOAD,2022-10-06 14:00:01,15.7320228,0.0001125999999999,53.2173,172.0007,116.3819,235.3682,2.2145e-05,2.489e-05,0.0,0 STARLINK-4752,1 53821U 22114D   22279.58334491  .00002489  00000-0  22145-4 0  9999,2 53821  53.2173 172.0007 0001126 116.3819 235.3682 15.73202280  1301,6727.889,91.533,350.511,348.996,0.0
53821.0,STARLINK-4752,PAYLOAD,2022-10-06 22:42:55,15.73202303,0.000112,53.2175,170.2055,110.6936,138.8129,2.5761e-05,2.997e-05,0.0,0 STARLINK-4752,1 53821U 22114D   22279.94646991  .00002997  00000-0  25761-4 0  9991,2 53821  53.2175 170.2055 0001120 110.6936 138.8129 15.73202303  1306,6727.889,91.533,350.50699999999995,349.0,0.0
53821.0,STARLINK-4752,PAYLOAD,2022-10-07 00:00:00,15.73204225,0.0001143,53.2175,169.9407,110.902,82.0138,7.059600000000002e-07,-5.21e-06,0.0,0 STARLINK-4752,1 53821U 22114D   22280.00001157 -.00000521  00000-0  70596-6 0  9999,2 53821  53.2175 169.9407 0001143 110.9020  82.0138 15.73204225  3402,6727.8830000000025,91.533,350.517,348.97900000000016,0.0
53821.0,STARLINK-4752,PAYLOAD,2022-10-07 14:00:01,15.73211702,0.0001286,53.2154,167.0486,109.359,149.30700000000004,-0.00016597,-0.00023858,0.0,0 STARLINK-4752,1 53821U 22114D   22280.58334491 -.00023858  00000-0 -16597-3 0  9999,2 53821  53.2154 167.0486 0001286 109.3590 149.3070 15.73211702  3496,6727.861999999999,91.532,350.592,348.862,0.0
53821.0,STARLINK-4752,PAYLOAD,2022-10-07 22:00:00,15.73199566,0.0001347,53.2153,165.4008,104.2799,243.3009,-0.00031244,-0.00044238,0.0,0 STARLINK-4752,1 53821U 22114D   22280.91667824 -.00044238  00000-0 -31244-3 0  9996,2 53821  53.2153 165.4008 0001347 104.2799 243.3009 15.73199566  1308,6727.896,91.533,350.668,348.855,0.0
53821.0,STARLINK-4752,PAYLOAD,2022-10-08 06:00:00,15.73210403,0.0001009,53.2151,163.7515,104.2686,332.2539,-0.00013628,-0.00019709,0.0,0 STARLINK-4752,1 53821U 22114D   22281.25001157 -.00019709  00000-0 -13628-3 0  9996,2 53821  53.2151 163.7515 0001009 104.2686 332.2539 15.73210403  3605,6727.866,91.533,350.409,349.052,0.0
53821.0,STARLINK-4752,PAYLOAD,2022-10-08 14:00:01,15.73205038,0.0001267,53.2173,162.1033,100.983,64.3715,-1.3547e-05,-2.521e-05,0.0,0 STARLINK-4752,1 53821U 22114D   22281.58334491 -.00002521  00000-0 -13547-4 0  9997,2 53821  53.2173 162.1033 0001267 100.9830  64.3715 15.73205038  1309,6727.880999999999,91.533,350.598,348.89300000000014,0.0
53821.0,STARLINK-4752,PAYLOAD,2022-10-08 22:00:00,15.73405048,0.0001226,53.2153,160.4517,105.1968,149.5214,0.00058208,0.00082604,0.0,0 STARLINK-4752,1 53821U 22114D   22281.91667824  .00082604  00000-0  58208-3 0  9993,2 53821  53.2153 160.4517 0001226 105.1968 149.5214 15.73405048  3708,6727.311,91.521,350.0,348.351,0.0
53821.0,STARLINK-4752,PAYLOAD,2022-10-09 14:00:01,15.73477241,0.0001192,53.215,157.1497,114.7209,318.4729,0.0005965,0.00084953,0.0,0 STARLINK-4752,1 53821U 22114D   22282.58334491  .00084953  00000-0  59650-3 0  9999,2 53821  53.2150 157.1497 0001192 114.7209 318.4729 15.73477241  1307,6727.105,91.517,349.772,348.168,0.0
53821.0,STARLINK-4752,PAYLOAD,2022-10-09 22:00:00,15.73534479,0.0001104,53.2147,155.5013,104.6282,57.8639,0.00016962,0.00023594,0.0,0 STARLINK-4752,1 53821U 22114D   22282.91667824  .00023594  00000-0  16962-3 0  9998,2 53821  53.2147 155.5013 0001104 104.6282  57.8639 15.73534479  1302,6726.941999999999,91.514,349.5490000000001,348.064,0.0
53821.0,STARLINK-4752,PAYLOAD,2022-10-10 08:00:01,15.73581014,0.0001036999999999,53.2147,153.4375,110.2154,253.9542,9.3158e-05,0.00012686,0.0,0 STARLINK-4752,1 53821U 22114D   22283.33334491  .00012686  00000-0  93158-4 0  9999,2 53821  53.2147 153.4375 0001037 110.2154 253.9542 15.73581014  3925,6726.809,91.511,349.372,347.977,0.0
53821.0,STARLINK-4752,PAYLOAD,2022-10-10 14:00:01,15.7303691,6.8e-05,53.2144,152.2015,147.5023,192.1215,0.0012032,0.00170517,0.0,0 STARLINK-4752,1 53821U 22114D   22283.58334491  .00170517  00000-0  12032-2 0  9994,2 53821  53.2144 152.2015 0000680 147.5023 192.1215 15.73036910  3966,6728.36,91.543,350.68300000000005,349.76800000000014,0.0
53821.0,STARLINK-4752,PAYLOAD,2022-10-10 22:00:01,15.73309622,7.020000000000001e-05,53.2163,150.5562,143.6276,284.8531,-0.0063324,-0.00811744,0.0,0 STARLINK-4752,1 53821U 22114D   22283.91668981 -.00811744  00000-0 -63324-2 0  9991,2 53821  53.2163 150.5562 0000702 143.6276 284.8531 15.73309622  4017,6727.583000000001,91.527,349.92,348.975,0.0
53821.0,STARLINK-4752,PAYLOAD,2022-10-11 06:00:00,15.73205667,0.0001639,53.2174,148.9082,100.9168,55.9111,-2.1902e-05,-3.694e-05,0.0,0 STARLINK-4752,1 53821U 22114D   22284.25001157 -.00003694  00000-0 -21902-4 0  9990,2 53821  53.2174 148.9082 0001639 100.9168  55.9111 15.73205667  4074,6727.879,91.533,350.847,348.641,0.0
53821.0,STARLINK-4752,PAYLOAD,2022-10-11 14:00:01,15.72897306,0.0001718,53.217,147.2565,105.9315,139.9869,0.0034553,0.00508235,0.0,0 STARLINK-4752,1 53821U 22114D   22284.58334491  .00508235  00000-0  34553-2 0  9999,2 53821  53.2170 147.2565 0001718 105.9315 139.9869 15.72897306  1307,6728.7580000000025,91.551,351.779,349.467,0.0
53821.0,STARLINK-4752,PAYLOAD,2022-10-11 22:00:00,15.73286173,0.0001385,53.2137,145.6051,106.8794,228.6086,0.00054017,0.00076162,0.0,0 STARLINK-4752,1 53821U 22114D   22284.91667824  .00076162  00000-0  54017-3 0  9992,2 53821  53.2137 145.6051 0001385 106.8794 228.6086 15.73286173  4173,6727.65,91.528,350.446,348.583,0.0
53821.0,STARLINK-4752,PAYLOAD,2022-10-12 14:00:01,15.73396901,0.0001353,53.2139,142.3031,119.0001,34.687,0.00083318,0.00118983,0.0,0 STARLINK-4752,1 53821U 22114D   22285.58334491  .00118983  00000-0  83318-3 0  9991,2 53821  53.2139 142.3031 0001353 119.0001  34.6870 15.73396901  1308,6727.334,91.522,350.1090000000001,348.289,0.0
53821.0,STARLINK-4752,PAYLOAD,2022-10-12 22:00:00,15.73465252,0.0001217999999999,53.214,140.655,106.1833,136.7198,0.00061244,0.00087219,0.0,0 STARLINK-4752,1 53821U 22114D   22285.91667824  .00087219  00000-0  61244-3 0  9998,2 53821  53.2140 140.6550 0001218 106.1833 136.7198 15.73465252  4336,6727.139,91.518,349.8230000000001,348.185,0.0
53821.0,STARLINK-4752,PAYLOAD,2022-10-13 14:00:01,15.73556744,0.0001214,53.2139,137.3525,118.6097,302.8361,0.00071938,0.00103159,0.0,0 STARLINK-4752,1 53821U 22114D   22286.58334491  .00103159  00000-0  71938-3 0  9996,2 53821  53.2139 137.3525 0001214 118.6097 302.8361 15.73556744  1304,6726.878000000002,91.512,349.56,347.927,0.0
53821.0,STARLINK-4752,PAYLOAD,2022-10-13 20:00:01,15.73615318,0.0001072,53.2136,136.1163,109.7606,288.7920000000001,0.00036185,0.00051389,0.0,0 STARLINK-4752,1 53821U 22114D   22286.83335648  .00051389  00000-0  36185-3 0  9991,2 53821  53.2136 136.1163 0001072 109.7606 288.7920 15.73615318  4472,6726.7109999999975,91.509,349.297,347.855,0.0
53821.0,STARLINK-4752,PAYLOAD,2022-10-13 22:00:00,15.73612371,0.0001036,53.2136,135.704,106.5435,44.3039,0.00058855,0.00084296,0.0,0 STARLINK-4752,1 53821U 22114D   22286.91667824  .00084296  00000-0  58855-3 0  9995,2 53821  53.2136 135.7040 0001036 106.5435  44.3039 15.73612371  1308,6726.72,91.509,349.282,347.88800000000015,0.0
53821.0,STARLINK-4752,PAYLOAD,2022-10-14 08:00:01,15.73728168,9.49e-05,53.2136,133.6388,120.4151,232.4567,0.00065925,0.00095093,0.0,0 STARLINK-4752,1 53821U 22114D   22287.33335648  .00095093  00000-0  65925-3 0  9991,2 53821  53.2136 133.6388 0000949 120.4151 232.4567 15.73728168  4550,6726.39,91.502,348.89300000000014,347.616,0.0
53821.0,STARLINK-4752,PAYLOAD,2022-10-14 14:00:01,15.73779789,9.82e-05,53.2138,132.4001,122.5109,207.4859,0.00078955,0.00114533,0.0,0 STARLINK-4752,1 53821U 22114D   22287.58334491  .00114533  00000-0  78955-3 0  9991,2 53821  53.2138 132.4001 0000982 122.5109 207.4859 15.73779789  1305,6726.243,91.499,348.76800000000014,347.44699999999995,0.0
53821.0,STARLINK-4752,PAYLOAD,2022-10-14 18:00:00,15.73829255,8.8e-05,53.2139,131.5758,114.7652,80.0543,0.00048406,0.0006975,0.0,0 STARLINK-4752,1 53821U 22114D   22287.75001157  .00069750  00000-0  48406-3 0  9998,2 53821  53.2139 131.5758 0000880 114.7652  80.0543 15.73829255  1307,6726.102,91.497,348.559,347.375,0.0
53821.0,STARLINK-4752,PAYLOAD,2022-10-15 06:00:00,15.73876362,7.44e-05,53.2138,129.0991,111.0907,38.1071,0.00033452,0.00047981,0.0,0 STARLINK-4752,1 53821U 22114D   22288.25001157  .00047981  00000-0  33452-3 0  9991,2 53821  53.2138 129.0991 0000744 111.0907  38.1071 15.73876362  4707,6725.968000000003,91.494,348.333,347.332,0.0
53821.0,STARLINK-4752,PAYLOAD,2022-10-15 14:00:01,15.72442933,0.0001271,53.2177,127.452,112.3561,123.5888,-0.0013277,-0.00177261,0.0,0 STARLINK-4752,1 53821U 22114D   22288.58334491 -.00177261  00000-0 -13277-2 0  9996,2 53821  53.2177 127.4520 0001271 112.3561 123.5888 15.72442933  4758,6730.054,91.577,352.775,351.064,0.0
53821.0,STARLINK-4752,PAYLOAD,2022-10-15 22:00:01,15.723284,0.0001149,53.2175,125.8066,82.7226,241.2253,-5.7475e-06,-1.389e-05,0.0,0 STARLINK-4752,1 53821U 22114D   22288.91668981 -.00001389  00000-0 -57475-5 0  9995,2 53821  53.2175 125.8066 0001149  82.7226 241.2253 15.72328400  4807,6730.380999999999,91.584,353.02,351.473,0.0
